KUIPER-00279            
1 67795U 26030AH  26190.24332220  .00002457  00000+0  35131-3 0  9994
2 67795  51.9030   0.6272 0001203 145.7594 214.3446 14.79925500 23665
KUIPER-00131            
1 68573U 26072A   26190.17194414  .00002457  00000+0  35120-3 0  9996
2 68573  51.8993  98.4337 0000741  95.4276 264.6771 14.79931378 14375
KUIPER-00189            
1 68574U 26072B   26190.13548062  .00001854  00000+0  27224-3 0  9991
2 68574  51.8982 101.0804 0000777 102.3856 257.7193 14.79920646 14338
KUIPER-00192            
1 68575U 26072C   26189.90449957  .00003984  00000+0  55113-3 0  9992
2 68575  51.8984  97.1101 0001071 130.2450 229.8606 14.79944346 14370
KUIPER-00193            
1 68576U 26072D   26190.10531988  .00001581  00000+0  25481-3 0  9999
2 68576  51.9042  86.1104 0000484 358.5999   1.4961 14.76600212 14543
KUIPER-00194            
1 68577U 26072E   26190.14348222  .00002546  00000+0  36298-3 0  9991
2 68577  51.9011  93.5676 0000906 140.0011 220.1018 14.79911716 14443
KUIPER-00229            
1 68578U 26072F   26189.93556862 -.00003738  00000+0 -46127-3 0  9996
2 68578  51.9009  99.4742 0000686  92.1831 267.9210 14.79956097 14345
KUIPER-00230            
1 68579U 26072G   26190.08379322  .00019129  00000+0  50388-3 0  9992
2 68579  51.8762  70.7124 0003098  81.3992 278.7347 15.38544159 14759
KUIPER-00231            
1 68580U 26072H   26190.83335647 -.00920362  00000+0 -67401-1 0  9993
2 68580  51.9035  69.0579 0001432  87.4387 137.4765 15.06069890  4781
KUIPER-00234            
1 68581U 26072J   26190.16336979  .00001746  00000+0  27823-3 0  9999
2 68581  51.8994  93.3167 0000425 254.7377 105.3537 14.76585222 14440
KUIPER-00236            
1 68582U 26072K   26189.97347460  .00012258  00000+0  33223-3 0  9995
2 68582  51.8760  71.4707 0003523  95.9668 264.1720 15.38038145 14735
KUIPER-00244            
1 68583U 26072L   26190.08682926  .00002322  00000+0  33313-3 0  9990
2 68583  51.8987  83.8218 0001734 109.0795 251.0355 14.79990222 14579
KUIPER-00253            
1 68584U 26072M   26190.08413682  .00002490  00000+0  35551-3 0  9994
2 68584  51.9029  86.3356 0000694  96.0866 264.0175 14.79926904 14533
KUIPER-00254            
1 68585U 26072N   26189.91261477  .00002235  00000+0  32218-3 0  9992
2 68585  51.9023  89.5930 0001892  95.6139 264.5039 14.79925593 14470
KUIPER-00263            
1 68586U 26072P   26190.83335647 -.00056563  00000+0 -56303-2 0  9992
2 68586  51.8988  70.9514 0002614  29.1045 309.0538 14.91385619  4755
KUIPER-00269            
1 68587U 26072Q   26190.83335647 -.00073067  00000+0 -90697-2 0  9995
2 68587  51.8999  73.0446 0001134 295.1449 207.3828 14.82560466  5292
