{"fetched_at":"2026-07-10T07:58:39.953Z","source":"https://celestrak.org/NORAD/elements/gp.php?GROUP=kuiper&FORMAT=JSON","constellation":"kuiper","records":[{"OBJECT_NAME":"KUIPER-00279","OBJECT_ID":"2026-030AH","EPOCH":"2026-07-09T05:50:23.038080","CLASSIFICATION_TYPE":"U","MEAN_MOTION":14.799255,"ECCENTRICITY":0.00012034,"INCLINATION":51.903,"RA_OF_ASC_NODE":0.6272,"ARG_OF_PERICENTER":145.7594,"MEAN_ANOMALY":214.3446,"EPHEMERIS_TYPE":0,"NORAD_CAT_ID":67795,"ELEMENT_SET_NO":999,"REV_AT_EPOCH":2366,"BSTAR":0.00035130982,"MEAN_MOTION_DOT":0.00002457,"MEAN_MOTION_DDOT":0},{"OBJECT_NAME":"KUIPER-00131","OBJECT_ID":"2026-072A","EPOCH":"2026-07-09T04:07:35.973696","CLASSIFICATION_TYPE":"U","MEAN_MOTION":14.79931378,"ECCENTRICITY":0.00007417,"INCLINATION":51.8993,"RA_OF_ASC_NODE":98.4337,"ARG_OF_PERICENTER":95.4276,"MEAN_ANOMALY":264.6771,"EPHEMERIS_TYPE":0,"NORAD_CAT_ID":68573,"ELEMENT_SET_NO":999,"REV_AT_EPOCH":1437,"BSTAR":0.00035120331,"MEAN_MOTION_DOT":0.00002457,"MEAN_MOTION_DDOT":0},{"OBJECT_NAME":"KUIPER-00189","OBJECT_ID":"2026-072B","EPOCH":"2026-07-09T03:15:05.525568","CLASSIFICATION_TYPE":"U","MEAN_MOTION":14.79920646,"ECCENTRICITY":0.00007774,"INCLINATION":51.8982,"RA_OF_ASC_NODE":101.0804,"ARG_OF_PERICENTER":102.3856,"MEAN_ANOMALY":257.7193,"EPHEMERIS_TYPE":0,"NORAD_CAT_ID":68574,"ELEMENT_SET_NO":999,"REV_AT_EPOCH":1433,"BSTAR":0.00027224211,"MEAN_MOTION_DOT":0.00001854,"MEAN_MOTION_DDOT":0},{"OBJECT_NAME":"KUIPER-00192","OBJECT_ID":"2026-072C","EPOCH":"2026-07-08T21:42:28.762848","CLASSIFICATION_TYPE":"U","MEAN_MOTION":14.79944346,"ECCENTRICITY":0.0001071,"INCLINATION":51.8984,"RA_OF_ASC_NODE":97.1101,"ARG_OF_PERICENTER":130.245,"MEAN_ANOMALY":229.8606,"EPHEMERIS_TYPE":0,"NORAD_CAT_ID":68575,"ELEMENT_SET_NO":999,"REV_AT_EPOCH":1437,"BSTAR":0.00055113479,"MEAN_MOTION_DOT":0.00003984,"MEAN_MOTION_DDOT":0},{"OBJECT_NAME":"KUIPER-00193","OBJECT_ID":"2026-072D","EPOCH":"2026-07-09T02:31:39.637632","CLASSIFICATION_TYPE":"U","MEAN_MOTION":14.76600212,"ECCENTRICITY":0.00004844,"INCLINATION":51.9042,"RA_OF_ASC_NODE":86.1104,"ARG_OF_PERICENTER":358.5999,"MEAN_ANOMALY":1.4961,"EPHEMERIS_TYPE":0,"NORAD_CAT_ID":68576,"ELEMENT_SET_NO":999,"REV_AT_EPOCH":1454,"BSTAR":0.00025480685,"MEAN_MOTION_DOT":0.00001581,"MEAN_MOTION_DDOT":0},{"OBJECT_NAME":"KUIPER-00194","OBJECT_ID":"2026-072E","EPOCH":"2026-07-09T03:26:36.863808","CLASSIFICATION_TYPE":"U","MEAN_MOTION":14.79911716,"ECCENTRICITY":0.00009067,"INCLINATION":51.9011,"RA_OF_ASC_NODE":93.5676,"ARG_OF_PERICENTER":140.0011,"MEAN_ANOMALY":220.1018,"EPHEMERIS_TYPE":0,"NORAD_CAT_ID":68577,"ELEMENT_SET_NO":999,"REV_AT_EPOCH":1444,"BSTAR":0.00036298472,"MEAN_MOTION_DOT":0.00002546,"MEAN_MOTION_DDOT":0},{"OBJECT_NAME":"KUIPER-00229","OBJECT_ID":"2026-072F","EPOCH":"2026-07-08T22:27:13.128768","CLASSIFICATION_TYPE":"U","MEAN_MOTION":14.79956097,"ECCENTRICITY":0.0000686,"INCLINATION":51.9009,"RA_OF_ASC_NODE":99.4742,"ARG_OF_PERICENTER":92.1831,"MEAN_ANOMALY":267.921,"EPHEMERIS_TYPE":0,"NORAD_CAT_ID":68578,"ELEMENT_SET_NO":999,"REV_AT_EPOCH":1434,"BSTAR":-0.00046127097,"MEAN_MOTION_DOT":-0.00003738,"MEAN_MOTION_DDOT":0},{"OBJECT_NAME":"KUIPER-00230","OBJECT_ID":"2026-072G","EPOCH":"2026-07-09T02:00:39.734208","CLASSIFICATION_TYPE":"U","MEAN_MOTION":15.38544159,"ECCENTRICITY":0.00030989,"INCLINATION":51.8762,"RA_OF_ASC_NODE":70.7124,"ARG_OF_PERICENTER":81.3992,"MEAN_ANOMALY":278.7347,"EPHEMERIS_TYPE":0,"NORAD_CAT_ID":68579,"ELEMENT_SET_NO":999,"REV_AT_EPOCH":1475,"BSTAR":0.00050387592,"MEAN_MOTION_DOT":0.00019129,"MEAN_MOTION_DDOT":0},{"OBJECT_NAME":"KUIPER-00231","OBJECT_ID":"2026-072H","EPOCH":"2026-07-09T20:00:01.999008","CLASSIFICATION_TYPE":"U","MEAN_MOTION":15.0606989,"ECCENTRICITY":0.0001432,"INCLINATION":51.9035,"RA_OF_ASC_NODE":69.0579,"ARG_OF_PERICENTER":87.4387,"MEAN_ANOMALY":137.4765,"EPHEMERIS_TYPE":0,"NORAD_CAT_ID":68580,"ELEMENT_SET_NO":999,"REV_AT_EPOCH":478,"BSTAR":-0.067401,"MEAN_MOTION_DOT":-0.00920362,"MEAN_MOTION_DDOT":0},{"OBJECT_NAME":"KUIPER-00234","OBJECT_ID":"2026-072J","EPOCH":"2026-07-09T03:55:15.149856","CLASSIFICATION_TYPE":"U","MEAN_MOTION":14.76585222,"ECCENTRICITY":0.0000425,"INCLINATION":51.8994,"RA_OF_ASC_NODE":93.3167,"ARG_OF_PERICENTER":254.7377,"MEAN_ANOMALY":105.3537,"EPHEMERIS_TYPE":0,"NORAD_CAT_ID":68581,"ELEMENT_SET_NO":999,"REV_AT_EPOCH":1444,"BSTAR":0.00027823171,"MEAN_MOTION_DOT":0.00001746,"MEAN_MOTION_DDOT":0},{"OBJECT_NAME":"KUIPER-00236","OBJECT_ID":"2026-072K","EPOCH":"2026-07-08T23:21:48.205440","CLASSIFICATION_TYPE":"U","MEAN_MOTION":15.38038145,"ECCENTRICITY":0.00035233,"INCLINATION":51.876,"RA_OF_ASC_NODE":71.4707,"ARG_OF_PERICENTER":95.9668,"MEAN_ANOMALY":264.172,"EPHEMERIS_TYPE":0,"NORAD_CAT_ID":68582,"ELEMENT_SET_NO":999,"REV_AT_EPOCH":1473,"BSTAR":0.00033222914,"MEAN_MOTION_DOT":0.00012258,"MEAN_MOTION_DDOT":0},{"OBJECT_NAME":"KUIPER-00244","OBJECT_ID":"2026-072L","EPOCH":"2026-07-09T02:05:02.048064","CLASSIFICATION_TYPE":"U","MEAN_MOTION":14.79990222,"ECCENTRICITY":0.00017348,"INCLINATION":51.8987,"RA_OF_ASC_NODE":83.8218,"ARG_OF_PERICENTER":109.0795,"MEAN_ANOMALY":251.0355,"EPHEMERIS_TYPE":0,"NORAD_CAT_ID":68583,"ELEMENT_SET_NO":999,"REV_AT_EPOCH":1457,"BSTAR":0.0003331319,"MEAN_MOTION_DOT":0.00002322,"MEAN_MOTION_DDOT":0},{"OBJECT_NAME":"KUIPER-00253","OBJECT_ID":"2026-072M","EPOCH":"2026-07-09T02:01:09.421248","CLASSIFICATION_TYPE":"U","MEAN_MOTION":14.79926904,"ECCENTRICITY":0.0000694,"INCLINATION":51.9029,"RA_OF_ASC_NODE":86.3356,"ARG_OF_PERICENTER":96.0866,"MEAN_ANOMALY":264.0175,"EPHEMERIS_TYPE":0,"NORAD_CAT_ID":68584,"ELEMENT_SET_NO":999,"REV_AT_EPOCH":1453,"BSTAR":0.00035550965,"MEAN_MOTION_DOT":0.0000249,"MEAN_MOTION_DDOT":0},{"OBJECT_NAME":"KUIPER-00254","OBJECT_ID":"2026-072N","EPOCH":"2026-07-08T21:54:09.916128","CLASSIFICATION_TYPE":"U","MEAN_MOTION":14.79925593,"ECCENTRICITY":0.0001892,"INCLINATION":51.9023,"RA_OF_ASC_NODE":89.593,"ARG_OF_PERICENTER":95.6139,"MEAN_ANOMALY":264.5039,"EPHEMERIS_TYPE":0,"NORAD_CAT_ID":68585,"ELEMENT_SET_NO":999,"REV_AT_EPOCH":1447,"BSTAR":0.00032217663,"MEAN_MOTION_DOT":0.00002235,"MEAN_MOTION_DDOT":0},{"OBJECT_NAME":"KUIPER-00263","OBJECT_ID":"2026-072P","EPOCH":"2026-07-09T20:00:01.999008","CLASSIFICATION_TYPE":"U","MEAN_MOTION":14.91385619,"ECCENTRICITY":0.0002614,"INCLINATION":51.8988,"RA_OF_ASC_NODE":70.9514,"ARG_OF_PERICENTER":29.1045,"MEAN_ANOMALY":309.0538,"EPHEMERIS_TYPE":0,"NORAD_CAT_ID":68586,"ELEMENT_SET_NO":999,"REV_AT_EPOCH":475,"BSTAR":-0.0056303,"MEAN_MOTION_DOT":-0.00056563,"MEAN_MOTION_DDOT":0},{"OBJECT_NAME":"KUIPER-00269","OBJECT_ID":"2026-072Q","EPOCH":"2026-07-09T20:00:01.999008","CLASSIFICATION_TYPE":"U","MEAN_MOTION":14.82560466,"ECCENTRICITY":0.0001134,"INCLINATION":51.8999,"RA_OF_ASC_NODE":73.0446,"ARG_OF_PERICENTER":295.1449,"MEAN_ANOMALY":207.3828,"EPHEMERIS_TYPE":0,"NORAD_CAT_ID":68587,"ELEMENT_SET_NO":999,"REV_AT_EPOCH":529,"BSTAR":-0.0090697,"MEAN_MOTION_DOT":-0.00073067,"MEAN_MOTION_DDOT":0}]}
